{
    "links": {
        "self": "http://www.neowsapp.com/rest/v1/neo/3799298?api_key=iIulBulltgU6a56xZRHN4H3l9WmuAYTsLGpBGhQ2"
    },
    "id": "3799298",
    "neo_reference_id": "3799298",
    "name": "(2018 CR2)",
    "designation": "2018 CR2",
    "nasa_jpl_url": "http://ssd.jpl.nasa.gov/sbdb.cgi?sstr=3799298",
    "absolute_magnitude_h": 24.2,
    "estimated_diameter": {
        "kilometers": {
            "estimated_diameter_min": 0.0384197891,
            "estimated_diameter_max": 0.0859092601
        },
        "meters": {
            "estimated_diameter_min": 38.4197891064,
            "estimated_diameter_max": 85.9092601232
        },
        "miles": {
            "estimated_diameter_min": 0.0238729428,
            "estimated_diameter_max": 0.0533815229
        },
        "feet": {
            "estimated_diameter_min": 126.0491808919,
            "estimated_diameter_max": 281.8545369825
        }
    },
    "is_potentially_hazardous_asteroid": false,
    "close_approach_data": [
        {
            "close_approach_date": "2018-02-18",
            "close_approach_date_full": "2018-Feb-18 18:33",
            "epoch_date_close_approach": 1518978780000,
            "relative_velocity": {
                "kilometers_per_second": "9.34402583",
                "kilometers_per_hour": "33638.4929878615",
                "miles_per_hour": "20901.6513790409"
            },
            "miss_distance": {
                "astronomical": "0.0599645073",
                "lunar": "23.3261933397",
                "kilometers": "8970562.567679451",
                "miles": "5574049.1074643838"
            },
            "orbiting_body": "Earth"
        }
    ],
    "orbital_data": {
        "orbit_id": "5",
        "orbit_determination_date": "2018-02-27 06:23:50",
        "first_observation_date": "2018-02-08",
        "last_observation_date": "2018-02-26",
        "data_arc_in_days": 18,
        "observations_used": 39,
        "orbit_uncertainty": "8",
        "minimum_orbit_intersection": ".0220438",
        "jupiter_tisserand_invariant": "4.141",
        "epoch_osculation": "2458160.5",
        "eccentricity": ".3914369329923557",
        "semi_major_axis": "1.662968868261433",
        "inclination": "13.33095693930405",
        "ascending_node_longitude": "336.5486212922938",
        "orbital_period": "783.293649326466",
        "perihelion_distance": "1.012021434807409",
        "perihelion_argument": "181.8525586123952",
        "aphelion_distance": "2.313916301715458",
        "perihelion_time": "2458173.272775201265",
        "mean_anomaly": "354.1296612369968",
        "mean_motion": ".4595977515068004",
        "equinox": "J2000",
        "orbit_class": {
            "orbit_class_type": "APO",
            "orbit_class_description": "Near-Earth asteroid orbits which cross the Earth’s orbit similar to that of 1862 Apollo",
            "orbit_class_range": "a (semi-major axis) > 1.0 AU; q (perihelion) < 1.017 AU"
        }
    },
    "is_sentry_object": false
}